EUTELSAT QUANTUM        
1 49056U 21069B   26166.19718829  .00000130  00000+0  00000+0 0  9990
2 49056   0.0104 348.0177 0002033  96.5728 297.5800  1.00272017 17904
ZHONGXING-2E            
1 49062U 21071A   26166.05322593 -.00000286  00000+0  00000+0 0  9997
2 49062   0.0381 223.7417 0001697 268.3035 248.5320  1.00270466 18011
TJS-7                   
1 49115U 21077A   26166.25208756 -.00000120  00000+0  00000+0 0  9995
2 49115   0.5029  86.1066 0001970 332.9825 195.7099  1.00269620  9537
CHINASAT 9B             
1 49125U 21080A   26166.04211558 -.00000308  00000+0  00000+0 0  9999
2 49125   0.0478  90.9287 0001386  22.6568 266.3270  1.00269547 17620
SHIJIAN-21 (SJ-21)      
1 49330U 21094A   26165.98156206 -.00000346  00000+0  00000+0 0  9994
2 49330   5.1079  61.1949 0049841 168.2883 155.1970  1.00271634  5338
SES-17                  
1 49332U 21095A   26165.81798219 -.00000266  00000+0  00000+0 0  9996
2 49332   0.0267  37.3677 0000743  46.2916  46.8225  1.00268509 17830
SYRACUSE 4A             
1 49333U 21095B   26166.19675494  .00000139  00000+0  00000+0 0  9996
2 49333   0.0171 352.5593 0001448  88.2402 299.0230  1.00269440 17926
QZS-1R (MICHIBIKI-1R)   
1 49336U 21096A   26165.64224595 -.00000276  00000+0  00000+0 0  9994
2 49336  37.4568  79.6218 0754676 271.7468 276.9403  1.00256090 16981
ZHONGXING-1D            
1 49505U 21114A   26166.21356836 -.00000332  00000+0  00000+0 0  9994
2 49505   0.0288 234.7379 0000678 351.7908 244.0476  1.00269703 16802
STPSAT-6                
1 49817U 21118A   26166.17128211 -.00000042  00000+0  00000+0 0  9991
2 49817   0.3159  85.4035 0001472 245.8436 242.2258  1.00273029 16556
EXPRESS AMU-7           
1 50001U 21123A   26166.21642836 -.00000239  00000+0  00000+0 0  9991
2 50001   0.0144 295.5171 0000712  44.9533 145.9484  1.00269563 16526
EXPRESS AMU-3           
1 50002U 21123B   26165.98286623  .00000000  00000+0  00000+0 0  9998
2 50002   0.0209 329.5636 0000188  62.3420 328.0956  1.00269503  7004
TIANLIAN 2-02           
1 50005U 21124A   26166.15033917 -.00000010  00000+0  00000+0 0  9990
2 50005   0.7951  86.1603 0001433 199.5248 202.8459  1.00271016 16608
TURKSAT 5B              
1 50212U 21126A   26165.62575792  .00000153  00000+0  00000+0 0  9992
2 50212   0.0678 339.8428 0003493  11.2535 179.1044  1.00273454 16274
INMARSAT 6-F1           
1 50319U 21128A   26165.99049676 -.00000166  00000+0  00000+0 0  9994
2 50319   0.0135 299.4891 0000389   1.1640  42.9719  1.00267498 16234
SHIYAN-12 01 (SY-12 01) 
1 50321U 21129A   26165.72373286  .00000073  00000+0  00000+0 0  9992
2 50321   3.6681  79.9422 0003245 284.4747 221.3020  1.00038769 16472
SHIYAN-12 02 (SY-12 02) 
1 50322U 21129B   26165.77301220 -.00000243  00000+0  00000+0 0  9997
2 50322   3.6679  79.9477 0002656  61.2901 127.1262  1.00489859 16479
TJS-9                   
1 50574U 21135A   26166.00107015 -.00000294  00000+0  00000+0 0  9992
2 50574   0.0437 252.8744 0004219 155.9053 352.0721  1.00268247 16404
USA 324                 
1 51280U 22006A   26157.08795008 -.00000058  00000+0  00000+0 0  9996
2 51280   0.7690  83.2777 0002840 165.6787 110.1567  1.00289779 16021
GOES 18                 
1 51850U 22021A   26166.20096487  .00000101  00000+0  00000+0 0  9993
2 51850   0.0096  95.6793 0000511  73.9917  29.1697  1.00272501  6578
ZHONGXING-6D            
1 52255U 22038A   26165.92145692 -.00000348  00000+0  00000+0 0  9996
2 52255   0.0154 285.3907 0000504 154.6652 279.9503  1.00273104 15394
NILESAT 301             
1 52817U 22061A   26166.18635491 -.00000054  00000+0  00000+0 0  9990
2 52817   0.0462   3.8332 0004620  50.3902 269.3465  1.00270327 14717
CMS-02 (GSAT-24)        
1 52903U 22067A   26165.99032344 -.00000160  00000+0  00000+0 0  9996
2 52903   0.0469 104.1391 0001392 261.6831 336.9792  1.00271112 14583
MEASAT 3D               
1 52904U 22067B   26166.02243156 -.00000237  00000+0  00000+0 0  9992
2 52904   0.0322 327.9366 0001450  39.8109 355.1280  1.00272591 14629
SES-22                  
1 52933U 22071A   26166.02753300  .00000109  00000+0  00000+0 0  9993
2 52933   0.0153 344.3485 0001236  86.3102  63.5587  1.00270118  7502
WFOV (USA 332)          
1 52940U 22073A   26166.00947531 -.00000360  00000+0  00000+0 0  9992
2 52940   3.7055  78.5551 0002179 236.1473  71.2269  1.00267542 14344
TIANLIAN 2-03           
1 53100U 22078A   26165.69079953  .00000078  00000+0  00000+0 0  9999
2 53100   0.6653  77.0045 0001547 327.4633 117.7944  1.00271787 14527
SBIRS GEO-6 (USA 336)   
1 53355U 22092A   26165.93007277 -.00000285  00000+0  00000+0 0  9995
2 53355   3.2616 317.4572 0001679 118.9109 300.6897  1.00270709 14219
EUTELSAT KONNECT VHTS   
1 53765U 22110A   26166.18826159  .00000020  00000+0  00000+0 0  9993
2 53765   0.0656 101.7882 0002343 325.5171 266.6373  1.00267956  6812
ZHONGXING-1E            
1 53813U 22112A   26165.98997677 -.00000144  00000+0  00000+0 0  9998
2 53813   0.0478 227.7410 0000877  86.6946  26.6312  1.00272410 13826
SES-20                  
1 53960U 22123A   26166.17128211 -.00000097  00000+0  00000+0 0  9992
2 53960   0.0333  69.7486 0001699  27.1469 125.1221  1.00268704 13510
SES-21                  
1 53961U 22123B   26166.23485221  .00000073  00000+0  00000+0 0  9990
2 53961   0.0264  26.5338 0000979  57.3187 133.2085  1.00269819  7196
