OBJECT_NAME,OBJECT_ID,EPOCH,MEAN_MOTION,ECCENTRICITY,INCLINATION,RA_OF_ASC_NODE,ARG_OF_PERICENTER,MEAN_ANOMALY,EPHEMERIS_TYPE,CLASSIFICATION_TYPE,NORAD_CAT_ID,ELEMENT_SET_NO,REV_AT_EPOCH,BSTAR,MEAN_MOTION_DOT,MEAN_MOTION_DDOT
EUTELSAT QUANTUM,2021-069B,2026-06-15T04:43:57.068256,1.00272017,.0002033,0.0104,348.0177,96.5728,297.5800,0,U,49056,999,1790,0,.13E-5,0
ZHONGXING-2E,2021-071A,2026-06-15T01:16:38.720352,1.00270466,.0001697,0.0381,223.7417,268.3035,248.5320,0,U,49062,999,1801,0,-.286E-5,0
TJS-7,2021-077A,2026-06-15T06:03:00.365184,1.00269620,.000197,0.5029,86.1066,332.9825,195.7099,0,U,49115,999,953,0,-.12E-5,0
CHINASAT 9B,2021-080A,2026-06-15T01:00:38.786112,1.00269547,.0001386,0.0478,90.9287,22.6568,266.3270,0,U,49125,999,1762,0,-.308E-5,0
SHIJIAN-21 (SJ-21),2021-094A,2026-06-14T23:33:26.961984,1.00271634,.00498414,5.1079,61.1949,168.2883,155.1970,0,U,49330,999,533,0,-.346E-5,0
SES-17,2021-095A,2026-06-14T19:37:53.661216,1.00268509,.00007439,0.0267,37.3677,46.2916,46.8225,0,U,49332,999,1783,0,-.266E-5,0
SYRACUSE 4A,2021-095B,2026-06-15T04:43:19.626816,1.00269440,.0001448,0.0171,352.5593,88.2402,299.0230,0,U,49333,999,1792,0,.139E-5,0
QZS-1R (MICHIBIKI-1R),2021-096A,2026-06-14T15:24:50.050080,1.00256090,.07546764,37.4568,79.6218,271.7468,276.9403,0,U,49336,999,1698,0,-.276E-5,0
ZHONGXING-1D,2021-114A,2026-06-15T05:07:32.306304,1.00269703,.0000678,0.0288,234.7379,351.7908,244.0476,0,U,49505,999,1680,0,-.332E-5,0
STPSAT-6,2021-118A,2026-06-15T04:06:38.774304,1.00273029,.0001472,0.3159,85.4035,245.8436,242.2258,0,U,49817,999,1655,0,-.42E-6,0
EXPRESS AMU-7,2021-123A,2026-06-15T05:11:39.410304,1.00269563,.0000712,0.0144,295.5171,44.9533,145.9484,0,U,50001,999,1652,0,-.239E-5,0
EXPRESS AMU-3,2021-123B,2026-06-14T23:35:19.642272,1.00269503,.0000188,0.0209,329.5636,62.3420,328.0956,0,U,50002,999,700,0,0,0
TIANLIAN 2-02,2021-124A,2026-06-15T03:36:29.304288,1.00271016,.0001433,0.7951,86.1603,199.5248,202.8459,0,U,50005,999,1660,0,-.1E-6,0
TURKSAT 5B,2021-126A,2026-06-14T15:01:05.484288,1.00273454,.00034935,0.0678,339.8428,11.2535,179.1044,0,U,50212,999,1627,0,.153E-5,0
INMARSAT 6-F1,2021-128A,2026-06-14T23:46:18.920064,1.00267498,.0000389,0.0135,299.4891,1.1640,42.9719,0,U,50319,999,1623,0,-.166E-5,0
SHIYAN-12 01 (SY-12 01),2021-129A,2026-06-14T17:22:10.519104,1.00038769,.0003245,3.6681,79.9422,284.4747,221.3020,0,U,50321,999,1647,0,.73E-6,0
SHIYAN-12 02 (SY-12 02),2021-129B,2026-06-14T18:33:08.254080,1.00489859,.0002656,3.6679,79.9477,61.2901,127.1262,0,U,50322,999,1647,0,-.243E-5,0
TJS-9,2021-135A,2026-06-15T00:01:32.460960,1.00268247,.0004219,0.0437,252.8744,155.9053,352.0721,0,U,50574,999,1640,0,-.294E-5,0
USA 324,2022-006A,2026-06-06T02:06:38.886912,1.00289779,.000284,0.7690,83.2777,165.6787,110.1567,0,U,51280,999,1602,0,-.58E-6,0
GOES 18,2022-021A,2026-06-15T04:49:23.364768,1.00272501,.0000511,0.0096,95.6793,73.9917,29.1697,0,U,51850,999,657,0,.101E-5,0
ZHONGXING-6D,2022-038A,2026-06-14T22:06:53.877888,1.00273104,.0000504,0.0154,285.3907,154.6652,279.9503,0,U,52255,999,1539,0,-.348E-5,0
NILESAT 301,2022-061A,2026-06-15T04:28:21.064224,1.00270327,.000462,0.0462,3.8332,50.3902,269.3465,0,U,52817,999,1471,0,-.54E-6,0
CMS-02 (GSAT-24),2022-067A,2026-06-14T23:46:03.945216,1.00271112,.0001392,0.0469,104.1391,261.6831,336.9792,0,U,52903,999,1458,0,-.16E-5,0
MEASAT 3D,2022-067B,2026-06-15T00:32:18.086784,1.00272591,.000145,0.0322,327.9366,39.8109,355.1280,0,U,52904,999,1462,0,-.237E-5,0
SES-22,2022-071A,2026-06-15T00:39:38.851200,1.00270118,.0001236,0.0153,344.3485,86.3102,63.5587,0,U,52933,999,750,0,.109E-5,0
WFOV (USA 332),2022-073A,2026-06-15T00:13:38.666784,1.00267542,.0002179,3.7055,78.5551,236.1473,71.2269,0,U,52940,999,1434,0,-.36E-5,0
TIANLIAN 2-03,2022-078A,2026-06-14T16:34:45.079392,1.00271787,.00015472,0.6653,77.0045,327.4633,117.7944,0,U,53100,999,1452,0,.78E-6,0
SBIRS GEO-6 (USA 336),2022-092A,2026-06-14T22:19:18.287328,1.00270709,.0001679,3.2616,317.4572,118.9109,300.6897,0,U,53355,999,1421,0,-.285E-5,0
EUTELSAT KONNECT VHTS,2022-110A,2026-06-15T04:31:05.801376,1.00267956,.0002343,0.0656,101.7882,325.5171,266.6373,0,U,53765,999,681,0,.2E-6,0
ZHONGXING-1E,2022-112A,2026-06-14T23:45:33.992928,1.00272410,.0000877,0.0478,227.7410,86.6946,26.6312,0,U,53813,999,1382,0,-.144E-5,0
SES-20,2022-123A,2026-06-15T04:06:38.774304,1.00268704,.0001699,0.0333,69.7486,27.1469,125.1221,0,U,53960,999,1351,0,-.97E-6,0
SES-21,2022-123B,2026-06-15T05:38:11.230944,1.00269819,.0000979,0.0264,26.5338,57.3187,133.2085,0,U,53961,999,719,0,.73E-6,0
